NORAD_CAT_ID,OBJECT_NAME,OBJECT_TYPE,EPOCH,MEAN_MOTION,ECCENTRICITY,INCLINATION,RA_OF_ASC_NODE,ARG_OF_PERICENTER,MEAN_ANOMALY,BSTAR,MEAN_MOTION_DOT,MEAN_MOTION_DDOT,TLE_LINE0,TLE_LINE1,TLE_LINE2,SEMIMAJOR_AXIS,PERIOD,APOGEE,PERIGEE,DECAYED
52622.0,STARLINK-4008,PAYLOAD,2022-09-17 03:27:33,15.0882417,0.0001449,53.218,223.3289,81.4539,278.6617,-0.0001085,-2.014e-05,0.0,0 STARLINK-4008,1 52622U 22052AA  22260.14413740 -.00002014  00000-0 -10850-3 0  9990,2 52622  53.2180 223.3289 0001449  81.4539 278.6617 15.08824170 19503,6917.929,95.439,540.7959999999998,538.7909999999998,0.0
52622.0,STARLINK-4008,PAYLOAD,2022-09-17 08:13:42,15.08826172,0.0001426,53.2176,222.4339,68.1996,291.9148,-0.00010009,-1.88e-05,0.0,0 STARLINK-4008,1 52622U 22052AA  22260.34285736 -.00001880  00000-0 -10009-3 0  9990,2 52622  53.2176 222.4339 0001426  68.1996 291.9148 15.08826172 19150,6917.9230000000025,95.438,540.774,538.8009999999998,0.0
52622.0,STARLINK-4008,PAYLOAD,2022-09-17 14:35:15,15.08826999,0.0001333,53.2175,221.2461,76.1249,283.9891,-4.7018e-05,-1.036e-05,0.0,0 STARLINK-4008,1 52622U 22052AA  22260.60781719 -.00001036  00000-0 -47018-4 0  9995,2 52622  53.2175 221.2461 0001333  76.1249 283.9891 15.08826999 19196,6917.92,95.438,540.707,538.863,0.0
52622.0,STARLINK-4008,PAYLOAD,2022-09-18 03:18:20,15.08834446,0.0001389,53.2181,218.8665,78.0891,282.0257,2.5179e-06,-2.48e-06,0.0,0 STARLINK-4008,1 52622U 22052AA  22261.13773498 -.00000248  00000-0  25179-5 0  9997,2 52622  53.2181 218.8665 0001389  78.0891 282.0257 15.08834446 19659,6917.897,95.438,540.7230000000002,538.8009999999998,0.0
52622.0,STARLINK-4008,PAYLOAD,2022-09-18 04:53:43,15.08835343,0.0001438,53.2185,218.5696,80.1336,279.9818,1.2855e-05,-8.3e-07,0.0,0 STARLINK-4008,1 52622U 22052AA  22261.20397453 -.00000083  00000-0  12855-4 0  9991,2 52622  53.2185 218.5696 0001438  80.1336 279.9818 15.08835343 19281,6917.895,95.438,540.754,538.765,0.0
52622.0,STARLINK-4008,PAYLOAD,2022-09-18 20:47:34,15.088352100000002,0.0001511,53.219,215.5952,78.3712,281.745,0.00021735,3.172e-05,0.0,0 STARLINK-4008,1 52622U 22052AA  22261.86637040  .00003172  00000-0  21735-3 0  9999,2 52622  53.2190 215.5952 0001511  78.3712 281.7450 15.08835210 19385,6917.895,95.438,540.805,538.715,0.0
52622.0,STARLINK-4008,PAYLOAD,2022-09-19 03:09:06,15.08844405,0.0001519,53.2187,214.4064,79.4577,280.6586,0.00029807,4.46e-05,0.0,0 STARLINK-4008,1 52622U 22052AA  22262.13132506  .00004460  00000-0  29807-3 0  9996,2 52622  53.2187 214.4064 0001519  79.4577 280.6586 15.08844405 19803,6917.8669999999975,95.437,540.783,538.681,0.0
52622.0,STARLINK-4008,PAYLOAD,2022-09-19 20:38:20,15.08848737,0.0001309,53.2187,211.1359,93.4119,266.7023,0.00010668,1.411e-05,0.0,0 STARLINK-4008,1 52622U 22052AA  22262.85996467  .00001411  00000-0  10668-3 0  9997,2 52622  53.2187 211.1359 0001309  93.4119 266.7023 15.08848737 19532,6917.854,95.437,540.624,538.813,0.0
52622.0,STARLINK-4008,PAYLOAD,2022-09-20 02:59:53,15.08845408,0.0001571,53.2188,209.9467,80.8961,279.2209,0.00014159,1.966e-05,0.0,0 STARLINK-4008,1 52622U 22052AA  22263.12492721  .00001966  00000-0  14159-3 0  9996,2 52622  53.2188 209.9467 0001571  80.8961 279.2209 15.08845408 19957,6917.864000000001,95.437,540.816,538.6419999999998,0.0
52622.0,STARLINK-4008,PAYLOAD,2022-09-20 06:10:40,15.08842847,0.0001296999999999,53.2179,209.3525,85.5064,274.6077,5.6647e-05,6.14e-06,0.0,0 STARLINK-4008,1 52622U 22052AA  22263.25740939  .00000614  00000-0  56647-4 0  9995,2 52622  53.2179 209.3525 0001297  85.5064 274.6077 15.08842847 19593,6917.871999999999,95.437,540.634,538.839,0.0
52622.0,STARLINK-4008,PAYLOAD,2022-09-20 14:07:35,15.08848749,0.0001333,53.2188,207.8652,76.1756,283.9385,5.5314e-05,5.93e-06,0.0,0 STARLINK-4008,1 52622U 22052AA  22263.58860424  .00000593  00000-0  55314-4 0  9999,2 52622  53.2188 207.8652 0001333  76.1756 283.9385 15.08848749 19640,6917.854,95.437,540.641,538.7959999999998,0.0
52622.0,STARLINK-4008,PAYLOAD,2022-09-21 01:15:17,15.08846039,0.0001486999999999,53.2187,205.7832,87.4707,272.6456,-5.5377e-05,-1.169e-05,0.0,0 STARLINK-4008,1 52622U 22052AA  22264.05228691 -.00001169  00000-0 -55377-4 0  9997,2 52622  53.2187 205.7832 0001487  87.4707 272.6456 15.08846039 19719,6917.861999999999,95.437,540.756,538.698,0.0
52622.0,STARLINK-4008,PAYLOAD,2022-09-22 02:41:28,15.08838721,0.00015,53.2188,201.0265,82.1671,277.9491,-7.703099999999999e-06,-4.11e-06,0.0,0 STARLINK-4008,1 52622U 22052AA  22265.11212964 -.00000411  00000-0 -77031-5 0  9992,2 52622  53.2188 201.0265 0001500  82.1671 277.9491 15.08838721 20254,6917.884,95.438,540.7869999999998,538.712,0.0
52622.0,STARLINK-4008,PAYLOAD,2022-09-22 12:13:46,15.08841468,0.0001455,53.219,199.2421,81.7659,278.3498,2.8216e-05,1.61e-06,0.0,0 STARLINK-4008,1 52622U 22052AA  22265.50956711  .00000161  00000-0  28216-4 0  9990,2 52622  53.2190 199.2421 0001455  81.7659 278.3498 15.08841468 19936,6917.876,95.437,540.747,538.734,0.0
52622.0,STARLINK-4008,PAYLOAD,2022-09-23 12:04:33,15.08838196,0.0001452,53.2186,194.7822,83.1291,276.9867,9.8651e-05,1.282e-05,0.0,0 STARLINK-4008,1 52622U 22052AA  22266.50316991  .00001282  00000-0  98651-4 0  9996,2 52622  53.2186 194.7822 0001452  83.1291 276.9867 15.08838196 20087,6917.886,95.438,540.755,538.746,0.0
52622.0,STARLINK-4008,PAYLOAD,2022-09-24 05:33:48,15.08840383,0.0001496,53.2194,191.5106,80.4941,279.6221,4.3658e-05,4.07e-06,0.0,0 STARLINK-4008,1 52622U 22052AA  22267.23181204  .00000407  00000-0  43658-4 0  9999,2 52622  53.2194 191.5106 0001496  80.4941 279.6221 15.08840383 20193,6917.879,95.438,540.779,538.7090000000002,0.0
52622.0,STARLINK-4008,PAYLOAD,2022-09-25 02:13:48,15.08841626,0.0001296999999999,53.2187,187.6441,82.2901,277.8239,0.00016467,2.334e-05,0.0,0 STARLINK-4008,1 52622U 22052AA  22268.09292335  .00002334  00000-0  16467-3 0  9990,2 52622  53.2187 187.6441 0001297  82.2901 277.8239 15.08841626 20705,6917.875,95.437,540.638,538.8430000000002,0.0
52622.0,STARLINK-4008,PAYLOAD,2022-09-25 11:46:07,15.08839997,0.0001281999999999,53.2185,185.8605,78.8746,281.23900000000003,1.4469000000000008e-05,-5.8e-07,0.0,0 STARLINK-4008,1 52622U 22052AA  22268.49036847 -.00000058  00000-0  14469-4 0  9991,2 52622  53.2185 185.8605 0001282  78.8746 281.2390 15.08839997 20768,6917.88,95.438,540.632,538.859,0.0
52622.0,STARLINK-4008,PAYLOAD,2022-09-26 00:29:13,15.08830735,0.0001311,53.2188,183.4818,78.5992,281.5147,-4.849399999999999e-05,-1.059e-05,0.0,0 STARLINK-4008,1 52622U 22052AA  22269.02029742 -.00001059  00000-0 -48494-4 0  9995,2 52622  53.2188 183.4818 0001311  78.5992 281.5147 15.08830735 20847,6917.909000000002,95.438,540.681,538.867,0.0
52622.0,STARLINK-4008,PAYLOAD,2022-09-26 11:36:55,15.08834841,0.0001301,53.2188,181.4002,78.0913,282.0225,-3.8598e-05,-9.02e-06,0.0,0 STARLINK-4008,1 52622U 22052AA  22269.48397617 -.00000902  00000-0 -38598-4 0  9994,2 52622  53.2188 181.4002 0001301  78.0913 282.0225 15.08834841 20538,6917.896,95.438,540.661,538.861,0.0
52622.0,STARLINK-4008,PAYLOAD,2022-09-27 00:20:01,15.0882648,0.0001378,53.2189,179.02200000000005,79.398,280.7167,-7.763300000000001e-05,-1.523e-05,0.0,0 STARLINK-4008,1 52622U 22052AA  22270.01390443 -.00001523  00000-0 -77633-4 0  9998,2 52622  53.2189 179.0220 0001378  79.3980 280.7167 15.08826480 20615,6917.922,95.438,540.74,538.8330000000002,0.0
52622.0,STARLINK-4008,PAYLOAD,2022-09-28 00:10:46,15.08844506,0.0001511,53.2191,174.5607,83.2974,276.819,0.00019023,2.741e-05,0.0,0 STARLINK-4008,1 52622U 22052AA  22271.00748737  .00002741  00000-0  19023-3 0  9990,2 52622  53.2191 174.5607 0001511  83.2974 276.8190 15.08844506 20760,6917.8669999999975,95.437,540.7769999999998,538.686,0.0
52622.0,STARLINK-4008,PAYLOAD,2022-09-28 17:40:00,15.08853473,0.0001634,53.2194,171.2908,81.9591,278.1586,0.00027723,4.128e-05,0.0,0 STARLINK-4008,1 52622U 22052AA  22271.73611595  .00004128  00000-0  27723-3 0  9998,2 52622  53.2194 171.2908 0001634  81.9591 278.1586 15.08853473 21259,6917.839,95.437,540.835,538.5740000000002,0.0
52622.0,STARLINK-4008,PAYLOAD,2022-09-28 20:50:47,15.08848003,0.0001529,53.2199,170.6889,105.1309,254.9853,0.00018289,2.625e-05,0.0,0 STARLINK-4008,1 52622U 22052AA  22271.86859973  .00002625  00000-0  18289-3 0  9993,2 52622  53.2199 170.6889 0001529 105.1309 254.9853 15.08848003 20895,6917.856,95.437,540.779,538.663,0.0
52622.0,STARLINK-4008,PAYLOAD,2022-09-29 00:01:34,15.08837884,0.0001426,53.2178,170.1091,69.8561,290.2585,-5.1e-05,-1.099e-05,0.0,0 STARLINK-4008,1 52622U 22052AA  22272.00109523 -.00001099  00000-0 -51000-4 0  9994,2 52622  53.2178 170.1091 0001426  69.8561 290.2585 15.08837884 20917,6917.887,95.438,540.738,538.765,0.0
52622.0,STARLINK-4008,PAYLOAD,2022-09-30 03:03:08,15.08839935,0.0001428,53.2194,165.0453,81.3447,278.7707,-0.00013683,-2.465e-05,0.0,0 STARLINK-4008,1 52622U 22052AA  22273.12718189 -.00002465  00000-0 -13683-3 0  9994,2 52622  53.2194 165.0453 0001428  81.3447 278.7707 15.08839935 21461,6917.880999999999,95.438,540.7330000000002,538.758,0.0
52622.0,STARLINK-4008,PAYLOAD,2022-09-30 09:24:40,15.08848229,0.0001361999999999,53.2186,163.8574,88.7604,271.3544,-7.3389e-05,-1.456e-05,0.0,0 STARLINK-4008,1 52622U 22052AA  22273.39213333 -.00001456  00000-0 -73389-4 0  9993,2 52622  53.2186 163.8574 0001362  88.7604 271.3544 15.08848229 21504,6917.855,95.437,540.6619999999998,538.778,0.0
52622.0,STARLINK-4008,PAYLOAD,2022-10-01 09:15:26,15.08839168,0.0001443999999999,53.2187,159.3975,83.4164,276.6993,0.0002018,2.925e-05,0.0,0 STARLINK-4008,1 52622U 22052AA  22274.38572863  .00002925  00000-0  20180-3 0  9999,2 52622  53.2187 159.3975 0001444  83.4164 276.6993 15.08839168 21276,6917.8830000000025,95.438,540.747,538.749,0.0
52622.0,STARLINK-4008,PAYLOAD,2022-10-01 17:12:22,15.08842927,0.0001389,53.2189,157.9098,78.3056,281.8092,0.00012228,1.659e-05,0.0,0 STARLINK-4008,1 52622U 22052AA  22274.71693178  .00001659  00000-0  12228-3 0  9996,2 52622  53.2189 157.9098 0001389  78.3056 281.8092 15.08842927 21702,6917.871,95.437,540.697,538.776,0.0
